[{"OBJECT_NAME":"STARLINK-5586","OBJECT_ID":"2023-013AX","EPOCH":"2026-03-09T22:00:01.999584","MEAN_MOTION":15.10202202,"ECCENTRICITY":0.00020543,"INCLINATION":43.0003,"RA_OF_ASC_NODE":286.1442,"ARG_OF_PERICENTER":239.559,"MEAN_ANOMALY":88.6644,"EPHEMERIS_TYPE":0,"CLASSIFICATION_TYPE":"U","NORAD_CAT_ID":55376,"ELEMENT_SET_NO":999,"REV_AT_EPOCH":577,"BSTAR":0.0026573218,"MEAN_MOTION_DOT":0.00044229,"MEAN_MOTION_DDOT":0},{"OBJECT_NAME":"UNKNOWN","OBJECT_ID":"","EPOCH":"2026-03-09T02:36:17.309088","MEAN_MOTION":15.13289121,"ECCENTRICITY":0.0003206,"INCLINATION":86.685,"RA_OF_ASC_NODE":115.8978,"ARG_OF_PERICENTER":174.9548,"MEAN_ANOMALY":185.1725,"EPHEMERIS_TYPE":0,"CLASSIFICATION_TYPE":"U","NORAD_CAT_ID":81969,"ELEMENT_SET_NO":999,"REV_AT_EPOCH":45322,"BSTAR":0.00076162,"MEAN_MOTION_DOT":0.00013589,"MEAN_MOTION_DDOT":0}]
